AKEBONO (EXOS-D)        
1 19822U 89016A   14341.99070271  .00081936  35394-6  19179-2 0   946
2 19822  75.0464 228.7336 2175835  60.3842  12.4122 11.10776949803733
HST                     
1 20580U 90037B   14341.45579023  .00004263  00000-0  27101-3 0  1724
2 20580  28.4718 337.5016 0002925 343.0654 151.9427 15.06351895150867
POLAR                   
1 23802U 96013A   14338.20708968 -.00000196  00000-0  00000+0 0  6480
2 23802  79.0767 293.4181 7293659   2.5348 359.3982  1.29842984 90144
SWAS                    
1 25560U 98071A   14342.22702371  .00003634  00000-0  37119-3 0  7179
2 25560  69.9019  56.6522 0005887 155.1582 204.9858 14.91473730867955
ORSTED                  
1 25635U 99008B   14342.32326913  .00000610  00000-0  15571-3 0  2824
2 25635  96.4833  87.5898 0138542 306.9895 115.7373 14.47414187832858
CXO                     
1 25867U 99040B   14342.44082230 -.00000230  00000-0  00000+0 0  1130
2 25867  77.0231 313.8698 7848929 271.8796   0.1292  0.37797329 12560
XMM-NEWTON              
1 25989U 99066A   14340.25429930 -.00000200  00000-0  00000+0 0  7719
2 25989  65.6901  49.8924 7840926  93.1676 359.6391  0.50318730 16253
TERRA                   
1 25994U 99068A   14342.52251254  .00000746  00000-0  17548-3 0  8973
2 25994  98.2104  54.7566 0000751  93.8087 266.3201 14.57122494796456
CLUSTER II-FM6 (SALSA)  
1 26410U 00041A   14342.87853010  .00000550  00000-0  00000+0 0  2570
2 26410 133.2006 321.4827 6238609 132.3742   0.0089  0.44222654 13429
CLUSTER II-FM7 (SAMBA)  
1 26411U 00041B   14342.88202234  .00000550  00000-0  00000+0 0  2253
2 26411 133.1990 321.4804 6238614 132.3677   0.0078  0.44222614 13502
CLUSTER II-FM5 (RUMBA)  
1 26463U 00045A   14342.87735885  .00000540  00000-0  00000+0 0  2143
2 26463 135.9828 320.2736 6300544 134.1608 359.9959  0.44223616 14009
CLUSTER II-FM8 (TANGO)  
1 26464U 00045B   14340.59712277  .00000419  00000-0  00000+0 0  1246
2 26464 132.5581 323.3993 6700755 137.4272 359.9729  0.44253948 49339
ODIN                    
1 26702U 01007A   14342.00697991  .00007131  00000-0  52845-3 0  4422
2 26702  97.6464 352.5282 0011028 316.6389  43.3968 15.03370416752850
TIMED                   
1 26998U 01055B   14341.98241348  .00001113  00000-0  12893-3 0    35
2 26998  74.0729 349.2132 0002870 280.3459  79.7397 14.86818262704354
RHESSI                  
1 27370U 02004A   14341.92333104  .00014387  00000-0  70201-3 0  5478
2 27370  38.0360 236.4392 0010971 162.2643 197.8508 15.17712247705469
INTEGRAL                
1 27540U 02048A   14342.85388004  .00000745  00000-0  00000+0 0  5476
2 27540  53.4229 234.4541 8601096 257.0472   0.3742  0.33303486 10989
CORIOLIS                
1 27640U 03001A   14341.66589657  .00000102  00000-0  70190-4 0  6494
2 27640  98.7541 347.9170 0015081  78.8438  56.5056 14.18774436617128
SORCE                   
1 27651U 03004A   14341.71904133  .00003608  00000-0  41116-3 0  5910
2 27651  39.9961  57.7887 0024857 241.7901 118.0377 14.86754175643336
MOST                    
1 27843U 03031D   14342.10241562 -.00000004  00000-0  18415-4 0  1031
2 27843  98.7168 347.3284 0010724 146.7285 254.1229 14.20430266593058
SCISAT 1                
1 27858U 03036A   14341.97325640  .00000538  00000-0  82254-4 0  4302
2 27858  73.9328 207.2533 0007618 171.1374 297.8463 14.76504791609639
SWIFT                   
1 28485U 04047A   14341.66116016  .00006090  00000-0  44043-3 0  8264
2 28485  20.5581  92.7017 0012511 124.9802 235.1807 15.00161565549264
SUZAKU (ASTRO-EII)      
1 28773U 05025A   14341.89330911  .00006788  00000-0  39610-3 0  4273
2 28773  31.3823 141.0095 0005294 114.3363  12.7398 15.10598004517466
FORMOSAT-3 FM6          
1 29047U 06011A   14342.24796460  .00000443  00000-0  19170-3 0  5417
2 29047  71.9810 267.8953 0053113 300.4921  59.0976 14.28162147453129
FORMOSAT-3 FM1          
1 29048U 06011B   14341.78673443  .00000422  00000-0  18439-3 0  6180
2 29048  71.9675 181.9954 0046159 257.0024 163.5087 14.28137782455548
FORMOSAT-3 FM5          
1 29049U 06011C   14342.35515134  .00000400  00000-0  17588-3 0  5478
2 29049  72.0212 341.0751 0037715 298.7857 158.7100 14.28148310451408
FORMOSAT-3 FM3          
1 29050U 06011D   14341.96861539  .00002028  00000-0  45091-3 0  9145
2 29050  72.0179 332.3950 0050268  28.0880 332.2967 14.57282910462144
FORMOSAT-3 FM4          
1 29051U 06011E   14341.24582773  .00000374  00000-0  16271-3 0  6111
2 29051  72.0069 248.9809 0068554 177.4724 182.6773 14.28152209453823
FORMOSAT-3 FM2          
1 29052U 06011F   14342.24059245  .00000501  00000-0  21523-3 0  6350
2 29052  72.0360 315.2266 0043014 265.9176 192.0418 14.28240707452282
CLOUDSAT                
1 29107U 06016A   14342.47551689 -.00005865  00000-0 -12944-2 0  8639
2 29107  98.2201 283.7661 0001348  78.9486 281.2240 14.57059193458217
CALIPSO                 
1 29108U 06016B   14342.47424066 -.00018156  00000-0 -40423-2 0  8841
2 29108  98.2199 283.3133 0001946 103.9701 256.3005 14.56982997458147
HINODE (SOLAR-B)        
1 29479U 06041A   14342.21101461  .00000613  00000-0  12557-3 0  5698
2 29479  98.1403 339.0341 0016340 234.8077 125.1595 14.64112071438444
SJ-6C                   
1 29505U 06046A   14342.43292807  .00002088  00000-0  20478-3 0   562
2 29505  97.7775 334.5711 0001883 305.3207  54.7805 14.93299858442242
SJ-6D                   
1 29506U 06046B   14342.50574407  .00000837  00000-0  87429-4 0  9952
2 29506  97.7910 333.4447 0002560  15.9768 344.1533 14.92342206442033
AGILE                   
1 31135U 07013A   14341.31236095  .00010894  00000-0  41393-3 0  1038
2 31135   2.4682  65.3186 0015420  99.0302 261.1497 15.22149886422397
AIM                     
1 31304U 07015A   14340.96408955  .00010413  00000-0  73836-3 0  5111
2 31304  97.8982 109.2611 0006297  40.1403 320.0287 15.04955221415626
FGRST (GLAST)           
1 33053U 08029A   14341.87102200  .00002517  00000-0  13660-3 0  7112
2 33053  25.5821 154.9148 0013314  63.8752 296.3152 15.09116335357720
IBEX                    
1 33401U 08051A   14344.36344630 -.00001488  00000-0  00000+0 0  1207
2 33401   7.3610 146.5550 5282329 352.0493 358.1014  0.10678371  2628
WISE                    
1 36119U 09071A   14342.00543946  .00008760  00000-0  38043-3 0  4337
2 36119  97.5099 352.0985 0002285   2.2991 357.8255 15.22547672275610
SDO                     
1 36395U 10005A   14342.02865780 -.00000033  00000-0  00000+0 0   887
2 36395  28.0153 157.2560 0001934 178.1200   9.7833  1.00272497 17830
CRYOSAT 2               
1 36508U 10013A   14341.97382517  .00000231  00000-0  56329-4 0  4161
2 36508  92.0208 339.2315 0007117 223.2963 136.7685 14.52177938247325
PICARD                  
1 36598U 10028A   14342.49288053  .00000645  00000-0  17725-3 0  9221
2 36598  98.2998 164.2814 0001121 308.4886  51.6208 14.50153018237154
SPEKTR-R                
1 37755U 11037A   14345.23871137 -.00001300  00000-0  00000+0 0  1400
2 37755  60.7655 113.0629 6930359 196.4977 359.6419  0.12010855  1468
GCOM-W1 (SHIZUKU)       
1 38337U 12025A   14341.50917696  .00000688  00000-0  16269-3 0  9720
2 38337  98.2178 279.0437 0000801  82.3480 277.7810 14.57126324136004
NUSTAR                  
1 38358U 12031A   14341.14096789  .00004414  00000-0  41986-3 0  6037
2 38358   6.0249 161.0480 0012645 331.2601  28.6831 14.85474923134816
RBSP A                  
1 38752U 12046A   14339.51057152 -.00000022  00000-0  96614-3 0  3835
2 38752   9.9700 260.9776 6830613  21.6133 356.8724  2.67365580 22115
RBSP B                  
1 38753U 12046B   14341.04555718 -.00000108  00000-0  10000-3 0  4020
2 38753   9.9685 263.7882 6837630  16.2674 357.6832  2.65878517 22052
NEOSSAT                 
1 39089U 13009D   14342.15135876  .00000173  00000-0  77623-4 0  5493
2 39089  98.6105 175.7215 0011863 143.9628 216.2358 14.34149689 93233
BRITE-AUSTRIA           
1 39091U 13009F   14341.79932294  .00000197  00000-0  85219-4 0  5401
2 39091  98.6102 175.9901 0011171 156.3229 203.8472 14.34784529 93220
UNIBRITE                
1 39092U 13009G   14341.78679757  .00000199  00000-0  86087-4 0  5500
2 39092  98.6102 175.8231 0010192 149.3746 210.8036 14.34657665 93217
IRIS                    
1 39197U 13033A   14342.18209513  .00001638  00000-0  23697-3 0  4760
2 39197  97.9013 163.8442 0027162 276.9777  82.8344 14.77258845 77915
HISAKI (SPRINT-A)       
1 39253U 13049A   14341.54049326  .00000046  00000-0 -22644-4 0  3677
2 39253  29.7213  12.1373 0137299 103.9690 257.6191 13.55101133 61005
CASSIOPE                
1 39265U 13055A   14342.23824994  .00022359  00000-0  71432-3 0  3742
2 39265  80.9863 240.5943 0751099  19.0141  91.7383 14.07758319 60928
DANDE                   
1 39267U 13055C   14341.82944377  .00019237  00000-0  63069-3 0  3777
2 39267  80.9922 241.7859 0760442  22.4332 340.8289 14.05218211 60807
STSAT-3                 
1 39422U 13066G   14342.46817797  .00003031  00000-0  33555-3 0  1789
2 39422  97.7669  52.6532 0024787  43.9962 316.3193 14.87858649 56771
BRITE-PL                
1 39431U 13066R   14341.70612574  .00000471  00000-0  11091-3 0  3161
2 39431  97.7263  27.0766 0205582  91.4644 271.0109 14.46228267 55084
SWARM B                 
1 39451U 13067A   14341.65781896  .00002091  00000-0  10000-3 0  3701
2 39451  87.7548 163.3782 0002092  41.6098 318.5357 15.18456642 57718
SWARM A                 
1 39452U 13067B   14342.19540495  .00008077  00000-0  23196-3 0  3474
2 39452  87.3526 145.1039 0002200  49.4443 310.7000 15.35670070 58278
SWARM C                 
1 39453U 13067C   14342.19531473  .00008258  00000-0  23719-3 0  3732
2 39453  87.3520 146.5077 0002223  51.6832 308.4620 15.35669963 58239
BRITE-TORONTO           
1 40020U 14033L   14342.50033826  .00001479  00000-0  26556-3 0  5194
2 40020  97.9554 231.8663 0089147  13.9164 346.4456 14.65626682 25048
OCO 2                   
1 40059U 14035A   14341.98735378  .00001129  00000-0  26045-3 0  1629
2 40059  98.2196 280.7007 0000832  77.5612 282.5678 14.57141014 23102
BRITE-PL 2              
1 40119U 14049B   14342.39996857  .00002090  00000-0  26398-3 0  1548
2 40119  98.0114  53.9671 0017460 209.2756 150.7457 14.82882554 16485
